FENGYUN 1C DEB          
1 37926U 99025EPB 17345.13602144  .00000493  00000-0  29423-3 0  9992
2 37926  98.9479  37.1728 0063611 257.0836 164.5855 14.10922562329382
